{"type":"FeatureCollection","_note":"SAMPLE schematic geometry — replace with real Dane County GIS via `npm run fetch-boundaries`.","features":[{"type":"Feature","properties":{"WARD_LABEL":"City of Madison Ward 34","ALDER":"6","MUNI":"City of Madison","_sample":true},"geometry":{"type":"Polygon","coordinates":[[[-89.44,43.05],[-89.428,43.05],[-89.428,43.058],[-89.44,43.058],[-89.44,43.05]]]}},{"type":"Feature","properties":{"WARD_LABEL":"City of Madison Ward 35","ALDER":"6","MUNI":"City of Madison","_sample":true},"geometry":{"type":"Polygon","coordinates":[[[-89.428,43.05],[-89.416,43.05],[-89.416,43.058],[-89.428,43.058],[-89.428,43.05]]]}},{"type":"Feature","properties":{"WARD_LABEL":"City of Madison Ward 36","ALDER":"6","MUNI":"City of Madison","_sample":true},"geometry":{"type":"Polygon","coordinates":[[[-89.416,43.05],[-89.404,43.05],[-89.404,43.058],[-89.416,43.058],[-89.416,43.05]]]}},{"type":"Feature","properties":{"WARD_LABEL":"City of Madison Ward 47","ALDER":"15","MUNI":"City of Madison","_sample":true},"geometry":{"type":"Polygon","coordinates":[[[-89.404,43.05],[-89.392,43.05],[-89.392,43.058],[-89.404,43.058],[-89.404,43.05]]]}},{"type":"Feature","properties":{"WARD_LABEL":"City of Madison Ward 48","ALDER":"15","MUNI":"City of Madison","_sample":true},"geometry":{"type":"Polygon","coordinates":[[[-89.44,43.058],[-89.428,43.058],[-89.428,43.066],[-89.44,43.066],[-89.44,43.058]]]}},{"type":"Feature","properties":{"WARD_LABEL":"City of Madison Ward 49","ALDER":"15","MUNI":"City of Madison","_sample":true},"geometry":{"type":"Polygon","coordinates":[[[-89.428,43.058],[-89.416,43.058],[-89.416,43.066],[-89.428,43.066],[-89.428,43.058]]]}},{"type":"Feature","properties":{"WARD_LABEL":"City of Madison Ward 88","ALDER":"16","MUNI":"City of Madison","_sample":true},"geometry":{"type":"Polygon","coordinates":[[[-89.416,43.058],[-89.404,43.058],[-89.404,43.066],[-89.416,43.066],[-89.416,43.058]]]}},{"type":"Feature","properties":{"WARD_LABEL":"City of Madison Ward 89","ALDER":"16","MUNI":"City of Madison","_sample":true},"geometry":{"type":"Polygon","coordinates":[[[-89.404,43.058],[-89.392,43.058],[-89.392,43.066],[-89.404,43.066],[-89.404,43.058]]]}},{"type":"Feature","properties":{"WARD_LABEL":"Town of Blooming Grove Ward 1","ALDER":"","MUNI":"Town of Blooming Grove","_sample":true},"geometry":{"type":"Polygon","coordinates":[[[-89.44,43.065999999999995],[-89.428,43.065999999999995],[-89.428,43.074],[-89.44,43.074],[-89.44,43.065999999999995]]]}},{"type":"Feature","properties":{"WARD_LABEL":"Village of McFarland Ward 3","ALDER":"","MUNI":"Village of McFarland","_sample":true},"geometry":{"type":"Polygon","coordinates":[[[-89.428,43.065999999999995],[-89.416,43.065999999999995],[-89.416,43.074],[-89.428,43.074],[-89.428,43.065999999999995]]]}}]}